OBJECT_NAME,OBJECT_ID,EPOCH,MEAN_MOTION,ECCENTRICITY,INCLINATION,RA_OF_ASC_NODE,ARG_OF_PERICENTER,MEAN_ANOMALY,EPHEMERIS_TYPE,CLASSIFICATION_TYPE,NORAD_CAT_ID,ELEMENT_SET_NO,REV_AT_EPOCH,BSTAR,MEAN_MOTION_DOT,MEAN_MOTION_DDOT
STARLINK-4558,2022-097AQ,2026-07-11T04:00:01.998720,15.34204357,.0001262,53.1725,267.5380,84.0798,277.8622,0,U,53426,999,578,.17634E-1,.636283E-2,0
STARLINK-4543,2022-097AT,2026-07-11T04:00:01.998720,15.28859242,.0000983,53.1596,267.6842,115.5964,173.0876,0,U,53429,999,578,.2572E-2,.73464E-3,0
STARLINK-4538,2022-097AU,2026-07-11T04:00:01.998720,15.30291923,.0000625,53.1600,267.4550,81.4056,325.9735,0,U,53430,999,587,.26549E-2,.7934E-3,0
STARLINK-4548,2022-097AV,2026-07-11T04:00:01.998720,15.28463631,.000094,53.1596,267.5209,92.7620,282.1258,0,U,53431,999,578,.28978E-2,.81908E-3,0
STARLINK-4557,2022-097AW,2026-07-11T04:00:01.998720,15.32237706,.0001753,53.1606,267.2045,87.5779,86.8794,0,U,53432,999,583,.33415E-2,.106599E-2,0
STARLINK-4549,2022-097AX,2026-07-09T11:38:42.752256,15.15369420,.00015951,53.1607,276.2367,114.9733,245.1428,0,U,53433,999,21716,-.3915928E-3,-.7775E-4,0
STARLINK-4542,2022-097AZ,2026-07-11T04:00:01.998720,15.35377477,.0001183,53.1754,266.9937,88.3028,193.7544,0,U,53435,999,588,.10572E-2,.36648E-3,0
STARLINK-4527,2022-097BA,2026-07-11T04:00:01.998720,15.31868393,.0001034,53.1606,267.4356,84.0576,330.0981,0,U,53436,999,578,.32947E-2,.103852E-2,0
STARLINK-4526,2022-097BC,2026-07-11T04:00:01.998720,15.31499828,.0002012,53.1607,267.2577,78.4196,68.1776,0,U,53438,999,588,.33879E-2,.105603E-2,0
STARLINK-4519,2022-097BD,2026-07-11T04:00:01.998720,15.34874682,.0002098,53.1605,267.2216,79.3269,83.1496,0,U,53439,999,583,.34173E-2,.118707E-2,0
DONGPO 07,2022-098A,2026-07-11T02:34:48.335232,15.76570424,.0004716,97.5572,325.0066,239.1036,120.9766,0,U,53444,999,21851,.53851E-3,.86077E-3,0
JILIN-1 GAOFEN 03D09,2022-098B,2026-07-11T04:55:05.625408,15.69794687,.000316,97.5612,323.7376,244.9954,115.0979,0,U,53445,999,21839,.48836E-3,.58295E-3,0
2022-098C,2022-098C,2026-07-11T04:51:39.930336,15.70785941,.0002495,97.5647,324.4758,247.3318,112.7680,0,U,53446,999,21841,.47334E-3,.58865E-3,0
JILIN-1 GAOFEN 03D43,2022-098E,2026-07-11T04:34:02.100576,15.73446890,.0003492,97.5599,324.8595,239.2966,120.7954,0,U,53448,999,21846,.46128E-3,.64216E-3,0
DONGPO 05,2022-098F,2026-07-11T02:43:36.545088,15.88565816,.0005031,97.5514,326.7596,233.6451,126.4357,0,U,53449,999,21865,.62229E-3,.171741E-2,.12697E-4
DONGPO 02,2022-098J,2026-07-11T05:20:23.561952,15.80276423,.0004402,97.5537,325.6003,223.2814,136.8107,0,U,53452,999,21858,.58022E-3,.109736E-2,0
DONGPO 01,2022-098K,2026-07-11T02:58:46.182432,15.77368156,.0002921,97.5608,325.9463,215.3634,144.7438,0,U,53453,999,21852,.51811E-3,.85734E-3,0
STARLINK-4415,2022-099A,2026-07-10T11:42:26.970624,15.10566145,.0001884,97.2867,310.4037,124.8709,235.2699,0,U,53465,999,21451,.19809E-3,.3209E-4,0
STARLINK-4398,2022-099B,2026-07-11T04:00:01.998720,15.48479999,.0001712,97.6043,317.1117,86.3110,186.8471,0,U,53466,999,591,-.17343E-1,-.841145E-2,0
STARLINK-4394,2022-099C,2026-07-11T04:00:01.998720,15.78237837,.0001104,97.6015,318.7089,54.7666,237.5187,0,U,53467,999,602,.28863E-2,.523157E-2,0
STARLINK-4400,2022-099D,2026-07-09T07:25:00.719040,15.05652292,.00016283,97.2840,308.1670,122.5425,237.5960,0,U,53468,999,21427,-.7660725E-5,-.167E-5,0
STARLINK-4399,2022-099E,2026-07-11T04:00:01.998720,15.14962359,.000173,97.2852,311.0793,81.3476,136.0194,0,U,53469,999,582,.41632E-1,.83295E-2,0
STARLINK-4393,2022-099F,2026-07-09T17:23:07.717632,15.05658357,.00014357,97.2827,308.5243,108.8785,251.2599,0,U,53470,999,21433,-.26742875E-4,-.442E-5,0
STARLINK-4316,2022-099G,2026-07-11T04:00:01.998720,15.15279293,.0001615,97.2855,311.0296,79.5767,32.7452,0,U,53471,999,586,.41472E-1,.837501E-2,0
STARLINK-4447,2022-099H,2026-07-09T06:21:12.114720,15.05660213,.00017508,97.2837,308.0672,124.7932,235.3460,0,U,53472,999,21426,-.39013401E-4,-.619E-5,0
STARLINK-4383,2022-099J,2026-07-11T04:00:01.998720,15.53813685,.0001318,97.5996,315.8058,77.7183,307.8552,0,U,53473,999,596,.21064E-2,.137308E-2,0
STARLINK-4445,2022-099K,2026-07-10T06:56:35.423232,15.05658154,.00014718,97.2844,309.0963,108.5094,251.6293,0,U,53474,999,21442,-.14500363E-4,-.265E-5,0
STARLINK-4389,2022-099L,2026-07-11T04:00:01.998720,15.54129194,.000133,97.6034,317.2718,90.8445,265.5657,0,U,53475,999,602,-.67837E-2,-.417837E-2,0
STARLINK-4378,2022-099M,2026-07-10T06:54:53.864352,15.04838089,.00003985,97.3252,309.2472,157.9522,202.1723,0,U,53476,999,21442,.1683551E-5,-.33E-6,0
STARLINK-4412,2022-099N,2026-07-11T04:00:01.998720,15.69503960,.0001243,97.6028,317.3810,60.9432,206.0998,0,U,53477,999,597,.2688E-2,.328049E-2,0
STARLINK-4433,2022-099P,2026-07-10T22:21:40.467168,15.05654547,.0001901,97.2884,309.6143,162.4346,197.6948,0,U,53478,999,21451,.35767E-4,.46E-5,0
STARLINK-4436,2022-099Q,2026-07-11T04:00:01.998720,15.10504638,.00014,97.2847,311.0856,71.1866,232.6442,0,U,53479,999,585,.33376E-2,.55305E-3,0
STARLINK-4442,2022-099R,2026-07-11T04:00:01.998720,15.61681891,.0001424,97.6035,317.4034,80.2626,326.1283,0,U,53480,999,598,.29356E-2,.260559E-2,0
STARLINK-4302,2022-099S,2026-07-11T04:00:01.998720,15.59527210,.0001304,97.6070,317.1202,74.2454,293.5820,0,U,53481,999,599,-.94209E-2,-.686321E-2,0
STARLINK-4360,2022-099T,2026-07-10T06:40:38.470656,15.05666523,.00013275,97.2845,309.1125,110.1179,250.0192,0,U,53482,999,21442,.16752689E-3,.2363E-4,0
STARLINK-4426,2022-099V,2026-07-11T04:00:01.998720,15.16469100,.0002928,97.2830,311.0219,91.5684,96.3892,0,U,53484,999,577,.36954E-2,.72525E-3,0
STARLINK-4430,2022-099W,2026-07-11T00:17:19.422240,15.05663683,.0000918,97.2840,309.7719,92.1076,268.0257,0,U,53485,999,21453,.10059E-4,.89E-6,0
STARLINK-4431,2022-099X,2026-07-11T04:00:01.998720,15.60835009,.0001278,97.6060,317.5930,76.6217,312.8992,0,U,53486,999,591,-.52418E-2,-.414978E-2,0
STARLINK-4432,2022-099Y,2026-07-11T04:00:01.998720,15.15118443,.0001683,97.2847,311.0558,79.0332,222.0395,0,U,53487,999,587,.42211E-1,.849464E-2,0
STARLINK-4421,2022-099Z,2026-07-11T04:00:01.998720,15.13166900,.000246,97.2864,311.1067,103.3052,307.0269,0,U,53488,999,587,.38166E-2,.68213E-3,0
STARLINK-4392,2022-099AA,2026-07-10T07:09:27.986112,15.06459187,.00014566,97.2859,309.0677,75.5717,284.5672,0,U,53489,999,21442,-.40382748E-4,-.652E-5,0
STARLINK-4387,2022-099AB,2026-07-11T04:00:01.998720,15.39883354,.0001199,97.6045,316.1380,79.2115,21.8937,0,U,53490,999,593,.26796E-2,.107792E-2,0
STARLINK-4450,2022-099AC,2026-07-11T04:48:12.864096,15.54130690,.0000999,97.6039,317.7879,87.3598,272.7770,0,U,53491,999,21494,.69079E-5,.344E-5,0
STARLINK-4451,2022-099AD,2026-07-11T04:00:01.998720,15.54875043,.0001183,97.6000,314.9769,77.4175,249.1496,0,U,53492,999,596,.83491E-2,.600153E-2,0
STARLINK-4340,2022-099AF,2026-07-11T00:00:02.000160,15.10568588,.000108,97.2849,310.9166,101.8069,88.5514,0,U,53494,999,584,-.31743E-2,-.52024E-3,0
STARLINK-4429,2022-099AG,2026-07-10T14:51:07.000128,15.05654174,.0001265,97.2835,309.3557,95.3571,264.7801,0,U,53495,999,21447,-.15847E-4,-.285E-5,0
STARLINK-4453,2022-099AJ,2026-07-09T16:43:15.216096,15.05657320,.00016679,97.2825,308.4576,123.0695,237.0693,0,U,53497,999,21433,-.6700151E-5,-.153E-5,0
STARLINK-4439,2022-099AK,2026-07-11T04:00:01.998720,15.14379898,.0001079,97.2860,310.9881,69.5118,161.5403,0,U,53498,999,582,.32985E-2,.60918E-3,0
STARLINK-4454,2022-099AL,2026-07-11T04:21:46.248192,15.40432408,.0001114,97.6019,316.1768,75.6627,284.4742,0,U,53499,999,21484,.99489E-3,.40336E-3,0
STARLINK-4455,2022-099AM,2026-07-11T04:00:01.998720,15.94772023,.000079,97.6042,319.0901,69.9667,285.3636,0,U,53500,999,597,.18564E-2,.70381E-2,.21133E-3
STARLINK-4434,2022-099AN,2026-07-11T04:00:01.998720,15.57174203,.0001471,97.6062,317.2686,75.1629,75.6270,0,U,53501,999,591,-.46924E-2,-.326989E-2,0
STARLINK-4435,2022-099AP,2026-07-11T04:00:01.998720,15.56829286,.0001959,97.6038,318.4803,74.0847,82.9776,0,U,53502,999,602,-.58171E-2,-.3968E-2,0
STARLINK-4448,2022-099AR,2026-07-09T19:00:47.161728,15.56407983,.00014708,97.6023,315.7701,96.2216,263.9205,0,U,53504,999,21469,.15806751E-4,.1007E-4,0
STARLINK-4446,2022-099AS,2026-07-10T08:38:17.559744,15.82805113,.00030974,97.6054,324.7502,183.5613,176.5634,0,U,53505,999,21531,.41270568E-3,.87394E-3,0
STARLINK-4437,2022-099AT,2026-07-11T04:00:01.998720,15.80062408,.0000974,97.6026,318.8805,63.7199,314.3178,0,U,53506,999,577,.26288E-2,.516585E-2,0
STARLINK-4443,2022-099AV,2026-07-11T04:00:01.998720,15.13353209,.0002182,97.2829,311.0523,92.6398,12.1963,0,U,53508,999,587,.34983E-2,.62798E-3,0
STARLINK-4402,2022-099AW,2026-07-11T04:00:01.998720,15.68177334,.000086,97.6037,317.0529,66.9867,70.9655,0,U,53509,999,590,.28246E-2,.326533E-2,0
YAOGAN-35 04A,2022-100A,2026-07-11T05:50:49.028064,15.23027854,.000445,35.0101,260.5220,143.9510,216.1505,0,U,53522,999,21693,.19745E-3,.4727E-4,0
YAOGAN-35 04B,2022-100C,2026-07-11T05:48:33.938208,15.36438938,.0004334,34.9998,232.7114,159.1453,200.9443,0,U,53524,999,10893,.18119E-3,.6583E-4,0
YAOGAN-35 04C,2022-100E,2026-07-10T17:50:04.413696,15.22091085,.0009534,34.9958,288.0827,268.1041,91.8581,0,U,53526,999,21655,.18415E-3,.4289E-4,0
STARLINK-4503,2022-101B,2026-07-11T02:50:44.930112,15.08835943,.0001366,53.1581,239.7861,90.7045,269.4103,0,U,53528,999,21479,.90417E-4,.1151E-4,0
STARLINK-4478,2022-101C,2026-07-10T03:27:53.771040,15.15445875,.00029615,53.2132,240.5126,57.0228,303.1051,0,U,53529,999,21470,.4815379E-3,.8917E-4,0
STARLINK-4482,2022-101D,2026-07-11T03:01:22.913760,15.08836972,.0001246,53.1581,239.9736,91.2613,268.8521,0,U,53530,999,21479,.10097E-3,.1319E-4,0
STARLINK-4487,2022-101E,2026-07-11T04:00:01.998720,15.19041127,.0000708,53.1611,239.3561,135.0824,297.2174,0,U,53531,999,588,.21084E-2,.44674E-3,0
STARLINK-4483,2022-101F,2026-07-10T19:25:37.096032,15.08824067,.0001202,53.1588,241.1757,82.4435,277.6693,0,U,53532,999,21475,.4476E-4,.424E-5,0
